start=new Date('2022-06-07T00:00:00.000Z').valueOf();
sats=[{"COUNTRY_CODE":"US","REF_FRAME":"TEME","GP_ID":"205526244","EPHEMERIS_TYPE":"0","MEAN_ANOMALY":"318.5165","OBJECT_NAME":"STARLINK-2411","CLASSIFICATION_TYPE":"U","BSTAR":"-0.00016194000000","TLE_LINE2":"2 47826  53.0556 290.5039 0001769  41.5958 318.5165 15.06414196 69816","MEAN_MOTION_DDOT":"0.0000000000000","PERIOD":"95.591","APOAPSIS":"548.395","TLE_LINE1":"1 47826U 21018AR  22157.74996102 -.00002694  00000-0 -16194-3 0  9991","MEAN_MOTION":"15.06414196","INCLINATION":"53.0556","FILE":"3484350","RCS_SIZE":"LARGE","TIME_SYSTEM":"UTC","LAUNCH_DATE":"2021-03-11","SEMIMAJOR_AXIS":"6925.305","CENTER_NAME":"EARTH","PERIAPSIS":"545.945","MEAN_MOTION_DOT":"-0.00002694","NORAD_CAT_ID":"47826","OBJECT_ID":"2021-018AR","EPOCH":"2022-06-06T17:59:56.632128","SITE":"AFETR","MEAN_ELEMENT_THEORY":"SGP4","OBJECT_TYPE":"PAYLOAD","RA_OF_ASC_NODE":"290.5039","ECCENTRICITY":"0.00017690","REV_AT_EPOCH":"6981","ELEMENT_SET_NO":"999","ARG_OF_PERICENTER":"41.5958","DECAY_DATE":null},{"REV_AT_EPOCH":"7000","ELEMENT_SET_NO":"999","ARG_OF_PERICENTER":"81.2714","DECAY_DATE":null,"OBJECT_TYPE":"PAYLOAD","RA_OF_ASC_NODE":"280.8145","ECCENTRICITY":"0.00012230","SITE":"AFETR","MEAN_ELEMENT_THEORY":"SGP4","LAUNCH_DATE":"2021-03-11","CENTER_NAME":"EARTH","SEMIMAJOR_AXIS":"6925.356","MEAN_MOTION_DOT":"0.00000022","PERIAPSIS":"546.374","NORAD_CAT_ID":"47827","OBJECT_ID":"2021-018AS","EPOCH":"2022-06-06T17:34:46.266816","APOAPSIS":"548.068","TLE_LINE1":"1 47827U 21018AS  22157.73247994  .00000022  00000-0  20361-4 0  9992","MEAN_MOTION":"15.06397572","INCLINATION":"53.0533","RCS_SIZE":"LARGE","FILE":"3484350","TIME_SYSTEM":"UTC","TLE_LINE2":"2 47827  53.0533 280.8145 0001223  81.2714 278.8414 15.06397572 70004","MEAN_MOTION_DDOT":"0.0000000000000","PERIOD":"95.592","OBJECT_NAME":"STARLINK-2413","CLASSIFICATION_TYPE":"U","BSTAR":"0.00002036100000","COUNTRY_CODE":"US","REF_FRAME":"TEME","GP_ID":"205525525","EPHEMERIS_TYPE":"0","MEAN_ANOMALY":"278.8414"},{"TLE_LINE2":"2 47828  53.0544 299.9768 0001817  54.2320 305.8838 15.06405480 69693","PERIOD":"95.592","MEAN_MOTION_DDOT":"0.0000000000000","TIME_SYSTEM":"UTC","RCS_SIZE":"LARGE","FILE":"3484350","TLE_LINE1":"1 47828U 21018AT  22157.86699013  .00002986  00000-0  21926-3 0  9998","MEAN_MOTION":"15.06405480","INCLINATION":"53.0544","APOAPSIS":"548.455","COUNTRY_CODE":"US","REF_FRAME":"TEME","MEAN_ANOMALY":"305.8838","EPHEMERIS_TYPE":"0","GP_ID":"205525771","OBJECT_NAME":"STARLINK-2415","CLASSIFICATION_TYPE":"U","BSTAR":"0.00021926000000","OBJECT_TYPE":"PAYLOAD","ECCENTRICITY":"0.00018170","RA_OF_ASC_NODE":"299.9768","ELEMENT_SET_NO":"999","REV_AT_EPOCH":"6969","DECAY_DATE":null,"ARG_OF_PERICENTER":"54.2320","SEMIMAJOR_AXIS":"6925.332","CENTER_NAME":"EARTH","LAUNCH_DATE":"2021-03-11","EPOCH":"2022-06-06T20:48:27.947232","OBJECT_ID":"2021-018AT","NORAD_CAT_ID":"47828","MEAN_MOTION_DOT":"0.00002986","PERIAPSIS":"545.938","SITE":"AFETR","MEAN_ELEMENT_THEORY":"SGP4"},{"MEAN_ANOMALY":"294.3520","EPHEMERIS_TYPE":"0","GP_ID":"205526521","COUNTRY_CODE":"US","REF_FRAME":"TEME","BSTAR":"0.00004562300000","CLASSIFICATION_TYPE":"U","OBJECT_NAME":"STARLINK-2416","PERIOD":"95.592","MEAN_MOTION_DDOT":"0.0000000000000","TLE_LINE2":"2 47829  53.0559 300.1923 0001355  65.7611 294.3520 15.06404420 69676","FILE":"3484350","RCS_SIZE":"MEDIUM","TIME_SYSTEM":"UTC","APOAPSIS":"548.138","INCLINATION":"53.0559","TLE_LINE1":"1 47829U 21018AU  22157.81906984  .00000398  00000-0  45623-4 0  9998","MEAN_MOTION":"15.06404420","OBJECT_ID":"2021-018AU","EPOCH":"2022-06-06T19:39:27.634176","PERIAPSIS":"546.262","MEAN_MOTION_DOT":"0.00000398","NORAD_CAT_ID":"47829","SEMIMAJOR_AXIS":"6925.335","CENTER_NAME":"EARTH","LAUNCH_DATE":"2021-03-11","MEAN_ELEMENT_THEORY":"SGP4","SITE":"AFETR","RA_OF_ASC_NODE":"300.1923","ECCENTRICITY":"0.00013550","OBJECT_TYPE":"PAYLOAD","DECAY_DATE":null,"ARG_OF_PERICENTER":"65.7611","REV_AT_EPOCH":"6967","ELEMENT_SET_NO":"999"},{"OBJECT_TYPE":"PAYLOAD","ECCENTRICITY":"0.00018140","RA_OF_ASC_NODE":"300.2120","ELEMENT_SET_NO":"999","REV_AT_EPOCH":"6934","ARG_OF_PERICENTER":"60.2021","DECAY_DATE":null,"LAUNCH_DATE":"2021-03-11","SEMIMAJOR_AXIS":"6925.371","CENTER_NAME":"EARTH","NORAD_CAT_ID":"47830","PERIAPSIS":"545.980","MEAN_MOTION_DOT":"-0.00001580","EPOCH":"2022-06-06T19:34:09.926688","OBJECT_ID":"2021-018AV","SITE":"AFETR","MEAN_ELEMENT_THEORY":"SGP4","TLE_LINE2":"2 47830  53.0565 300.2120 0001814  60.2021 299.9148 15.06392713 69342","MEAN_MOTION_DDOT":"0.0000000000000","PERIOD":"95.593","MEAN_MOTION":"15.06392713","TLE_LINE1":"1 47830U 21018AV  22157.81539267 -.00001580  00000-0 -87231-4 0  9993","INCLINATION":"53.0565","APOAPSIS":"548.492","TIME_SYSTEM":"UTC","FILE":"3484239","RCS_SIZE":"LARGE","REF_FRAME":"TEME","COUNTRY_CODE":"US","GP_ID":"205501114","MEAN_ANOMALY":"299.9148","EPHEMERIS_TYPE":"0","OBJECT_NAME":"STARLINK-2419","CLASSIFICATION_TYPE":"U","BSTAR":"-0.00008723100000"},{"RCS_SIZE":"LARGE","FILE":"3484350","TIME_SYSTEM":"UTC","APOAPSIS":"548.369","TLE_LINE1":"1 47831U 21018AW  22157.61680998  .00002615  00000-0  19439-3 0  9992","INCLINATION":"53.0571","MEAN_MOTION":"15.06401811","PERIOD":"95.592","MEAN_MOTION_DDOT":"0.0000000000000","TLE_LINE2":"2 47831  53.0571 276.1043 0001676  57.2676 302.8475 15.06401811 70050","BSTAR":"0.00019439000000","CLASSIFICATION_TYPE":"U","OBJECT_NAME":"STARLINK-2420","MEAN_ANOMALY":"302.8475","EPHEMERIS_TYPE":"0","GP_ID":"205525026","COUNTRY_CODE":"US","REF_FRAME":"TEME","DECAY_DATE":null,"ARG_OF_PERICENTER":"57.2676","REV_AT_EPOCH":"7005","ELEMENT_SET_NO":"999","RA_OF_ASC_NODE":"276.1043","ECCENTRICITY":"0.00016760","OBJECT_TYPE":"PAYLOAD","MEAN_ELEMENT_THEORY":"SGP4","SITE":"AFETR","OBJECT_ID":"2021-018AW","EPOCH":"2022-06-06T14:48:12.382272","PERIAPSIS":"546.047","MEAN_MOTION_DOT":"0.00002615","NORAD_CAT_ID":"47831","SEMIMAJOR_AXIS":"6925.343","CENTER_NAME":"EARTH","LAUNCH_DATE":"2021-03-11"},{"ECCENTRICITY":"0.00014720","RA_OF_ASC_NODE":"290.4031","OBJECT_TYPE":"PAYLOAD","ARG_OF_PERICENTER":"79.0080","DECAY_DATE":null,"ELEMENT_SET_NO":"999","REV_AT_EPOCH":"6981","NORAD_CAT_ID":"47832","PERIAPSIS":"546.222","MEAN_MOTION_DOT":"-0.00001747","EPOCH":"2022-06-06T18:31:48.274464","OBJECT_ID":"2021-018AX","LAUNCH_DATE":"2021-03-11","CENTER_NAME":"EARTH","SEMIMAJOR_AXIS":"6925.376","MEAN_ELEMENT_THEORY":"SGP4","SITE":"AFETR","MEAN_MOTION_DDOT":"0.0000000000000","PERIOD":"95.593","TLE_LINE2":"2 47832  53.0551 290.4031 0001472  79.0080 281.1074 15.06390923 69817","TLE_LINE1":"1 47832U 21018AX  22157.77208651 -.00001747  00000-0 -98441-4 0  9990","MEAN_MOTION":"15.06390923","INCLINATION":"53.0551","APOAPSIS":"548.261","TIME_SYSTEM":"UTC","RCS_SIZE":"LARGE","FILE":"3484350","GP_ID":"205525271","MEAN_ANOMALY":"281.1074","EPHEMERIS_TYPE":"0","COUNTRY_CODE":"US","REF_FRAME":"TEME","BSTAR":"-0.00009844100000","CLASSIFICATION_TYPE":"U","OBJECT_NAME":"STARLINK-2422"},{"EPHEMERIS_TYPE":"0","MEAN_ANOMALY":"296.6889","GP_ID":"205526021","COUNTRY_CODE":"US","REF_FRAME":"TEME","CLASSIFICATION_TYPE":"U","BSTAR":"0.00002053200000","OBJECT_NAME":"STARLINK-2423","PERIOD":"95.592","MEAN_MOTION_DDOT":"0.0000000000000","TLE_LINE2":"2 47833  53.0540 289.9954 0001495  63.4253 296.6889 15.06397851 69886","RCS_SIZE":"LARGE","FILE":"3484350","TIME_SYSTEM":"UTC","APOAPSIS":"548.255","TLE_LINE1":"1 47833U 21018AY  22157.86422845  .00000024  00000-0  20532-4 0  9995","MEAN_MOTION":"15.06397851","INCLINATION":"53.0540","OBJECT_ID":"2021-018AY","EPOCH":"2022-06-06T20:44:29.338080","PERIAPSIS":"546.185","MEAN_MOTION_DOT":"0.00000024","NORAD_CAT_ID":"47833","CENTER_NAME":"EARTH","SEMIMAJOR_AXIS":"6925.355","LAUNCH_DATE":"2021-03-11","MEAN_ELEMENT_THEORY":"SGP4","SITE":"AFETR","RA_OF_ASC_NODE":"289.9954","ECCENTRICITY":"0.00014950","OBJECT_TYPE":"PAYLOAD","DECAY_DATE":null,"ARG_OF_PERICENTER":"63.4253","REV_AT_EPOCH":"6988","ELEMENT_SET_NO":"999"},{"RCS_SIZE":"LARGE","FILE":"3484350","TIME_SYSTEM":"UTC","APOAPSIS":"548.313","TLE_LINE1":"1 47834U 21018AZ  22157.74259236  .00000759  00000-0  69875-4 0  9993","MEAN_MOTION":"15.06393274","INCLINATION":"53.0552","TLE_LINE2":"2 47834  53.0552 290.5332 0001558  59.7360 300.3783 15.06393274 69864","PERIOD":"95.593","MEAN_MOTION_DDOT":"0.0000000000000","OBJECT_NAME":"STARLINK-2424","CLASSIFICATION_TYPE":"U","BSTAR":"0.00006987500000","COUNTRY_CODE":"US","REF_FRAME":"TEME","EPHEMERIS_TYPE":"0","MEAN_ANOMALY":"300.3783","GP_ID":"205526245","REV_AT_EPOCH":"6986","ELEMENT_SET_NO":"999","DECAY_DATE":null,"ARG_OF_PERICENTER":"59.7360","OBJECT_TYPE":"PAYLOAD","RA_OF_ASC_NODE":"290.5332","ECCENTRICITY":"0.00015580","SITE":"AFETR","MEAN_ELEMENT_THEORY":"SGP4","SEMIMAJOR_AXIS":"6925.369","CENTER_NAME":"EARTH","LAUNCH_DATE":"2021-03-11","OBJECT_ID":"2021-018AZ","EPOCH":"2022-06-06T17:49:19.979904","MEAN_MOTION_DOT":"0.00000759","PERIAPSIS":"546.155","NORAD_CAT_ID":"47834"},{"LAUNCH_DATE":"2021-03-11","SEMIMAJOR_AXIS":"6928.549","CENTER_NAME":"EARTH","NORAD_CAT_ID":"47835","PERIAPSIS":"548.896","MEAN_MOTION_DOT":"-0.00111197","EPOCH":"2022-06-06T18:13:00.881472","OBJECT_ID":"2021-018BA","SITE":"AFETR","MEAN_ELEMENT_THEORY":"SGP4","OBJECT_TYPE":"PAYLOAD","ECCENTRICITY":"0.00021910","RA_OF_ASC_NODE":"295.4614","ELEMENT_SET_NO":"999","REV_AT_EPOCH":"6973","ARG_OF_PERICENTER":"89.0396","DECAY_DATE":null,"REF_FRAME":"TEME","COUNTRY_CODE":"US","GP_ID":"205525526","EPHEMERIS_TYPE":"0","MEAN_ANOMALY":"271.0844","OBJECT_NAME":"STARLINK-2425","BSTAR":"-0.00777950000000","CLASSIFICATION_TYPE":"U","TLE_LINE2":"2 47835  53.0563 295.4614 0002191  89.0396 271.0844 15.05356262 69736","MEAN_MOTION_DDOT":"0.0000000000000","PERIOD":"95.658","TLE_LINE1":"1 47835U 21018BA  22157.75903798 -.00111197  00000-0 -77795-2 0  9993","INCLINATION":"53.0563","MEAN_MOTION":"15.05356262","APOAPSIS":"551.932","TIME_SYSTEM":"UTC","FILE":"3484350","RCS_SIZE":"LARGE"}];
